CSS (TIANHE)            
1 48274U 21035A   24167.50330631  .00031093  00000+0  35035-3 0  9991
2 48274  41.4678  93.3842 0003865 229.1397 130.9108 15.61858206178832
